100 100
Demo-100x100 6995
1 06995U 00000ABC 00001.00000000  .00000000  00000-0  00000+0 0    02
2 06995  53.0000 248.4000 0000001   0.0000 338.4000 15.07000000    09
Demo-100x100 6996
1 06996U 00000ABC 00001.00000000  .00000000  00000-0  00000+0 0    03
2 06996  53.0000 248.4000 0000001   0.0000 342.0000 15.07000000    01
Demo-100x100 6997
1 06997U 00000ABC 00001.00000000  .00000000  00000-0  00000+0 0    04
2 06997  53.0000 248.4000 0000001   0.0000 345.6000 15.07000000    01
Demo-100x100 6998
1 06998U 00000ABC 00001.00000000  .00000000  00000-0  00000+0 0    05
2 06998  53.0000 248.4000 0000001   0.0000 349.2000 15.07000000    02
Demo-100x100 6999
1 06999U 00000ABC 00001.00000000  .00000000  00000-0  00000+0 0    06
2 06999  53.0000 248.4000 0000001   0.0000 352.8000 15.07000000    03
Demo-100x100 7000
1 07000U 00000ABC 00001.00000000  .00000000  00000-0  00000+0 0    00
2 07000  53.0000 248.4000 0000001   0.0000 356.4000 15.07000000    07
Demo-100x100 7001
1 07001U 00000ABC 00001.00000000  .00000000  00000-0  00000+0 0    01
2 07001  53.0000 252.0000 0000001   0.0000   0.0000 15.07000000    01
Demo-100x100 7002
1 07002U 00000ABC 00001.00000000  .00000000  00000-0  00000+0 0    02
2 07002  53.0000 252.0000 0000001   0.0000   3.6000 15.07000000    01
Demo-100x100 7003
1 07003U 00000ABC 00001.00000000  .00000000  00000-0  00000+0 0    03
2 07003  53.0000 252.0000 0000001   0.0000   7.2000 15.07000000    02
Demo-100x100 7004
1 07004U 00000ABC 00001.00000000  .00000000  00000-0  00000+0 0    04
2 07004  53.0000 252.0000 0000001   0.0000  10.8000 15.07000000    03
Demo-100x100 7005
1 07005U 00000ABC 00001.00000000  .00000000  00000-0  00000+0 0    05
2 07005  53.0000 252.0000 0000001   0.0000  14.4000 15.07000000    04
Demo-100x100 7006
1 07006U 00000ABC 00001.00000000  .00000000  00000-0  00000+0 0    06
2 07006  53.0000 252.0000 0000001   0.0000  18.0000 15.07000000    05
Demo-100x100 7007
1 07007U 00000ABC 00001.00000000  .00000000  00000-0  00000+0 0    07
2 07007  53.0000 252.0000 0000001   0.0000  21.6000 15.07000000    06
Demo-100x100 7008
1 07008U 00000ABC 00001.00000000  .00000000  00000-0  00000+0 0    08
2 07008  53.0000 252.0000 0000001   0.0000  25.2000 15.07000000    07
Demo-100x100 7009
1 07009U 00000ABC 00001.00000000  .00000000  00000-0  00000+0 0    09
2 07009  53.0000 252.0000 0000001   0.0000  28.8000 15.07000000    07
Demo-100x100 7010
1 07010U 00000ABC 00001.00000000  .00000000  00000-0  00000+0 0    01
2 07010  53.0000 252.0000 0000001   0.0000  32.4000 15.07000000    00
Demo-100x100 7011
1 07011U 00000ABC 00001.00000000  .00000000  00000-0  00000+0 0    02
2 07011  53.0000 252.0000 0000001   0.0000  36.0000 15.07000000    01
Demo-100x100 7012
1 07012U 00000ABC 00001.00000000  .00000000  00000-0  00000+0 0    03
2 07012  53.0000 252.0000 0000001   0.0000  39.6000 15.07000000    01
Demo-100x100 7013
1 07013U 00000ABC 00001.00000000  .00000000  00000-0  00000+0 0    04
2 07013  53.0000 252.0000 0000001   0.0000  43.2000 15.07000000    03
Demo-100x100 7014
1 07014U 00000ABC 00001.00000000  .00000000  00000-0  00000+0 0    05
2 07014  53.0000 252.0000 0000001   0.0000  46.8000 15.07000000    03
Demo-100x100 7015
1 07015U 00000ABC 00001.00000000  .00000000  00000-0  00000+0 0    06
2 07015  53.0000 252.0000 0000001   0.0000  50.4000 15.07000000    05
Demo-100x100 7016
1 07016U 00000ABC 00001.00000000  .00000000  00000-0  00000+0 0    07
2 07016  53.0000 252.0000 0000001   0.0000  54.0000 15.07000000    06
Demo-100x100 7017
1 07017U 00000ABC 00001.00000000  .00000000  00000-0  00000+0 0    08
2 07017  53.0000 252.0000 0000001   0.0000  57.6000 15.07000000    06
Demo-100x100 7018
1 07018U 00000ABC 00001.00000000  .00000000  00000-0  00000+0 0    09
2 07018  53.0000 252.0000 0000001   0.0000  61.2000 15.07000000    08
Demo-100x100 7019
1 07019U 00000ABC 00001.00000000  .00000000  00000-0  00000+0 0    00
2 07019  53.0000 252.0000 0000001   0.0000  64.8000 15.07000000    08
Demo-100x100 7020
1 07020U 00000ABC 00001.00000000  .00000000  00000-0  00000+0 0    02
2 07020  53.0000 252.0000 0000001   0.0000  68.4000 15.07000000    00
Demo-100x100 7021
1 07021U 00000ABC 00001.00000000  .00000000  00000-0  00000+0 0    03
2 07021  53.0000 252.0000 0000001   0.0000  72.0000 15.07000000    02
Demo-100x100 7022
1 07022U 00000ABC 00001.00000000  .00000000  00000-0  00000+0 0    04
2 07022  53.0000 252.0000 0000001   0.0000  75.6000 15.07000000    02
Demo-100x100 7023
1 07023U 00000ABC 00001.00000000  .00000000  00000-0  00000+0 0    05
2 07023  53.0000 252.0000 0000001   0.0000  79.2000 15.07000000    03
Demo-100x100 7024
1 07024U 00000ABC 00001.00000000  .00000000  00000-0  00000+0 0    06
2 07024  53.0000 252.0000 0000001   0.0000  82.8000 15.07000000    04
Demo-100x100 7025
1 07025U 00000ABC 00001.00000000  .00000000  00000-0  00000+0 0    07
2 07025  53.0000 252.0000 0000001   0.0000  86.4000 15.07000000    05
Demo-100x100 7026
1 07026U 00000ABC 00001.00000000  .00000000  00000-0  00000+0 0    08
2 07026  53.0000 252.0000 0000001   0.0000  90.0000 15.07000000    07
Demo-100x100 7027
1 07027U 00000ABC 00001.00000000  .00000000  00000-0  00000+0 0    09
2 07027  53.0000 252.0000 0000001   0.0000  93.6000 15.07000000    07
Demo-100x100 7028
1 07028U 00000ABC 00001.00000000  .00000000  00000-0  00000+0 0    00
2 07028  53.0000 252.0000 0000001   0.0000  97.2000 15.07000000    08
Demo-100x100 7029
1 07029U 00000ABC 00001.00000000  .00000000  00000-0  00000+0 0    01
2 07029  53.0000 252.0000 0000001   0.0000 100.8000 15.07000000    00
Demo-100x100 7030
1 07030U 00000ABC 00001.00000000  .00000000  00000-0  00000+0 0    03
2 07030  53.0000 252.0000 0000001   0.0000 104.4000 15.07000000    02
Demo-100x100 7031
1 07031U 00000ABC 00001.00000000  .00000000  00000-0  00000+0 0    04
2 07031  53.0000 252.0000 0000001   0.0000 108.0000 15.07000000    03
Demo-100x100 7032
1 07032U 00000ABC 00001.00000000  .00000000  00000-0  00000+0 0    05
2 07032  53.0000 252.0000 0000001   0.0000 111.6000 15.07000000    04
Demo-100x100 7033
1 07033U 00000ABC 00001.00000000  .00000000  00000-0  00000+0 0    06
2 07033  53.0000 252.0000 0000001   0.0000 115.2000 15.07000000    05
Demo-100x100 7034
1 07034U 00000ABC 00001.00000000  .00000000  00000-0  00000+0 0    07
2 07034  53.0000 252.0000 0000001   0.0000 118.8000 15.07000000    05
Demo-100x100 7035
1 07035U 00000ABC 00001.00000000  .00000000  00000-0  00000+0 0    08
2 07035  53.0000 252.0000 0000001   0.0000 122.4000 15.07000000    07
Demo-100x100 7036
1 07036U 00000ABC 00001.00000000  .00000000  00000-0  00000+0 0    09
2 07036  53.0000 252.0000 0000001   0.0000 126.0000 15.07000000    08
Demo-100x100 7037
1 07037U 00000ABC 00001.00000000  .00000000  00000-0  00000+0 0    00
2 07037  53.0000 252.0000 0000001   0.0000 129.6000 15.07000000    08
Demo-100x100 7038
1 07038U 00000ABC 00001.00000000  .00000000  00000-0  00000+0 0    01
2 07038  53.0000 252.0000 0000001   0.0000 133.2000 15.07000000    00
Demo-100x100 7039
1 07039U 00000ABC 00001.00000000  .00000000  00000-0  00000+0 0    02
2 07039  53.0000 252.0000 0000001   0.0000 136.8000 15.07000000    00
Demo-100x100 7040
1 07040U 00000ABC 00001.00000000  .00000000  00000-0  00000+0 0    04
2 07040  53.0000 252.0000 0000001   0.0000 140.4000 15.07000000    03
Demo-100x100 7041
1 07041U 00000ABC 00001.00000000  .00000000  00000-0  00000+0 0    05
2 07041  53.0000 252.0000 0000001   0.0000 144.0000 15.07000000    04
Demo-100x100 7042
1 07042U 00000ABC 00001.00000000  .00000000  00000-0  00000+0 0    06
2 07042  53.0000 252.0000 0000001   0.0000 147.6000 15.07000000    04
Demo-100x100 7043
1 07043U 00000ABC 00001.00000000  .00000000  00000-0  00000+0 0    07
2 07043  53.0000 252.0000 0000001   0.0000 151.2000 15.07000000    06
Demo-100x100 7044
1 07044U 00000ABC 00001.00000000  .00000000  00000-0  00000+0 0    08
2 07044  53.0000 252.0000 0000001   0.0000 154.8000 15.07000000    06
Demo-100x100 7045
1 07045U 00000ABC 00001.00000000  .00000000  00000-0  00000+0 0    09
2 07045  53.0000 252.0000 0000001   0.0000 158.4000 15.07000000    07
Demo-100x100 7046
1 07046U 00000ABC 00001.00000000  .00000000  00000-0  00000+0 0    00
2 07046  53.0000 252.0000 0000001   0.0000 162.0000 15.07000000    09
Demo-100x100 7047
1 07047U 00000ABC 00001.00000000  .00000000  00000-0  00000+0 0    01
2 07047  53.0000 252.0000 0000001   0.0000 165.6000 15.07000000    09
Demo-100x100 7048
1 07048U 00000ABC 00001.00000000  .00000000  00000-0  00000+0 0    02
2 07048  53.0000 252.0000 0000001   0.0000 169.2000 15.07000000    00
Demo-100x100 7049
1 07049U 00000ABC 00001.00000000  .00000000  00000-0  00000+0 0    03
2 07049  53.0000 252.0000 0000001   0.0000 172.8000 15.07000000    01
Demo-100x100 7050
1 07050U 00000ABC 00001.00000000  .00000000  00000-0  00000+0 0    05
2 07050  53.0000 252.0000 0000001   0.0000 176.4000 15.07000000    03
Demo-100x100 7051
1 07051U 00000ABC 00001.00000000  .00000000  00000-0  00000+0 0    06
2 07051  53.0000 252.0000 0000001   0.0000 180.0000 15.07000000    05
Demo-100x100 7052
1 07052U 00000ABC 00001.00000000  .00000000  00000-0  00000+0 0    07
2 07052  53.0000 252.0000 0000001   0.0000 183.6000 15.07000000    05
Demo-100x100 7053
1 07053U 00000ABC 00001.00000000  .00000000  00000-0  00000+0 0    08
2 07053  53.0000 252.0000 0000001   0.0000 187.2000 15.07000000    06
Demo-100x100 7054
1 07054U 00000ABC 00001.00000000  .00000000  00000-0  00000+0 0    09
2 07054  53.0000 252.0000 0000001   0.0000 190.8000 15.07000000    07
Demo-100x100 7055
1 07055U 00000ABC 00001.00000000  .00000000  00000-0  00000+0 0    00
2 07055  53.0000 252.0000 0000001   0.0000 194.4000 15.07000000    08
Demo-100x100 7056
1 07056U 00000ABC 00001.00000000  .00000000  00000-0  00000+0 0    01
2 07056  53.0000 252.0000 0000001   0.0000 198.0000 15.07000000    09
Demo-100x100 7057
1 07057U 00000ABC 00001.00000000  .00000000  00000-0  00000+0 0    02
2 07057  53.0000 252.0000 0000001   0.0000 201.6000 15.07000000    01
